NORAD_CAT_ID,OBJECT_NAME,OBJECT_TYPE,EPOCH,MEAN_MOTION,ECCENTRICITY,INCLINATION,RA_OF_ASC_NODE,ARG_OF_PERICENTER,MEAN_ANOMALY,BSTAR,MEAN_MOTION_DOT,MEAN_MOTION_DDOT,TLE_LINE0,TLE_LINE1,TLE_LINE2,SEMIMAJOR_AXIS,PERIOD,APOGEE,PERIGEE,DECAYED
53556.0,STARLINK-4505,PAYLOAD,2023-08-13 08:49:08,15.0882942,0.0001114,53.2175,320.9031,90.6098,269.5022,-6.076e-05,-1.254e-05,0.0,0 STARLINK-4505,1 53556U 22101AF  23225.36745446 -.00001254  00000-0 -60760-4 0  9990,2 53556  53.2175 320.9031 0001114  90.6098 269.5022 15.08829420 54505,6917.913,95.438,540.548,539.007,0.0
53556.0,STARLINK-4505,PAYLOAD,2023-08-13 13:35:17,15.08837067,0.0001011,53.2176,320.0114,87.4403,272.6705,5.2894e-05,5.54e-06,0.0,0 STARLINK-4505,1 53556U 22101AF  23225.56617118  .00000554  00000-0  52894-4 0  9995,2 53556  53.2176 320.0114 0001011  87.4403 272.6705 15.08837067 54531,6917.889,95.438,540.454,539.055,0.0
53556.0,STARLINK-4505,PAYLOAD,2023-08-15 00:33:46,15.08842566,9.92e-05,53.2175,313.4683,85.9785,274.1321,0.00011983,1.62e-05,0.0,0 STARLINK-4505,1 53556U 22101AF  23227.02345079  .00001620  00000-0  11983-3 0  9990,2 53556  53.2175 313.4683 0000992  85.9785 274.1321 15.08842566 54755,6917.873,95.437,540.424,539.051,0.0
53556.0,STARLINK-4505,PAYLOAD,2023-08-16 09:56:52,15.08838854,0.0001,53.2172,307.2248,87.2336,272.877,5.5538e-05,5.96e-06,0.0,0 STARLINK-4505,1 53556U 22101AF  23228.41449400  .00000596  00000-0  55538-4 0  9993,2 53556  53.2172 307.2248 0001000  87.2336 272.8770 15.08838854 54969,6917.884,95.438,540.441,539.057,0.0
53556.0,STARLINK-4505,PAYLOAD,2023-08-17 14:33:47,15.08853262,0.0001148,53.2171,301.871,112.04,248.0714,4.5197e-05,4.32e-06,0.0,0 STARLINK-4505,1 53556U 22101AF  23229.60680474  .00000432  00000-0  45197-4 0  9992,2 53556  53.2171 301.8710 0001148 112.0400 248.0714 15.08853262 55148,6917.84,95.437,540.499,538.911,0.0
53556.0,STARLINK-4505,PAYLOAD,2023-08-17 22:30:44,15.08842656,0.0001244,53.219,300.3834,70.0401,290.0725,0.00014399,2.005e-05,0.0,0 STARLINK-4505,1 53556U 22101AF  23229.93800982  .00002005  00000-0  14399-3 0  9993,2 53556  53.2190 300.3834 0001244  70.0401 290.0725 15.08842656 55190,6917.872,95.437,540.598,538.877,0.0
53556.0,STARLINK-4505,PAYLOAD,2023-08-18 09:38:26,15.08836475,0.0001242,53.218,298.2991,120.2845,239.827,8.7167e-05,1.1e-05,0.0,0 STARLINK-4505,1 53556U 22101AF  23230.40169487  .00001100  00000-0  87167-4 0  9994,2 53556  53.2180 298.2991 0001242 120.2845 239.8270 15.08836475 55262,6917.891,95.438,540.615,538.897,0.0
53556.0,STARLINK-4505,PAYLOAD,2023-08-19 11:04:36,15.08847055,0.0001247,53.2172,293.5438,112.9294,247.183,8.6216e-05,1.085e-05,0.0,0 STARLINK-4505,1 53556U 22101AF  23231.46153022  .00001085  00000-0  86216-4 0  9995,2 53556  53.2172 293.5438 0001247 112.9294 247.1830 15.08847055 55426,6917.859,95.437,540.586,538.861,0.0
53556.0,STARLINK-4505,PAYLOAD,2023-08-20 04:33:51,15.08830964,0.0001282,53.2171,290.2749,101.3195,258.7941,8.632e-05,1.086e-05,0.0,0 STARLINK-4505,1 53556U 22101AF  23232.19018221  .00001086  00000-0  86320-4 0  9994,2 53556  53.2171 290.2749 0001282 101.3195 258.7941 15.08830964 55539,6917.908,95.438,540.66,538.886,0.0
53556.0,STARLINK-4505,PAYLOAD,2023-08-20 10:55:25,15.08758123,0.0001673,53.2179,289.0875,92.0849,268.0335,0.0011723,0.00018377,0.0,0 STARLINK-4505,1 53556U 22101AF  23232.45515980  .00018377  00000-0  11723-2 0  9991,2 53556  53.2179 289.0875 0001673  92.0849 268.0335 15.08758123 55570,6918.131,95.443,541.153,538.838,0.0
53556.0,STARLINK-4505,PAYLOAD,2023-08-20 20:27:42,15.08838121,0.0001354,53.2181,287.304,110.8555,249.2583,4.7238e-05,4.64e-06,0.0,0 STARLINK-4505,1 53556U 22101AF  23232.85258000  .00000464  00000-0  47238-4 0  9992,2 53556  53.2181 287.3040 0001354 110.8555 249.2583 15.08838121 55637,6917.886,95.438,540.688,538.814,0.0
53556.0,STARLINK-4505,PAYLOAD,2023-08-21 23:29:16,15.08834124,0.0001297,53.2177,282.2477,101.7716,258.3422,8.75e-05,1.105e-05,0.0,0 STARLINK-4505,1 53556U 22101AF  23233.97866351  .00001105  00000-0  87500-4 0  9999,2 53556  53.2177 282.2477 0001297 101.7716 258.3422 15.08834124 55805,6917.898,95.438,540.661,538.866,0.0
53556.0,STARLINK-4505,PAYLOAD,2023-08-23 02:30:49,15.08839561,0.0001249,53.2166,277.1893,89.4612,270.6523,8.1523e-05,1.01e-05,0.0,0 STARLINK-4505,1 53556U 22101AF  23235.10474319  .00001010  00000-0  81523-4 0  9999,2 53556  53.2166 277.1893 0001249  89.4612 270.6523 15.08839561 55979,6917.882,95.438,540.611,538.883,0.0
53556.0,STARLINK-4505,PAYLOAD,2023-08-24 11:53:55,15.08844655,0.0001335,53.2169,270.945,92.3122,267.8023,9.932e-05,1.293e-05,0.0,0 STARLINK-4505,1 53556U 22101AF  23236.49577961  .00001293  00000-0  99320-4 0  9996,2 53556  53.2169 270.9450 0001335  92.3122 267.8023 15.08844655 56184,6917.866,95.437,540.655,538.808,0.0
53556.0,STARLINK-4505,PAYLOAD,2023-08-25 10:09:19,15.08843568,0.0001512,53.2171,266.7818,99.0347,261.0816,4.8351e-05,4.82e-06,0.0,0 STARLINK-4505,1 53556U 22101AF  23237.42314018  .00000482  00000-0  48351-4 0  9999,2 53556  53.2171 266.7818 0001512  99.0347 261.0816 15.08843568 56322,6917.869,95.437,540.78,538.689,0.0
53556.0,STARLINK-4505,PAYLOAD,2023-08-26 08:24:43,15.08839826,0.0001559,53.2169,262.6189,97.3525,262.7645,3.0521e-05,1.98e-06,0.0,0 STARLINK-4505,1 53556U 22101AF  23238.35050245  .00000198  00000-0  30521-4 0  9995,2 53556  53.2169 262.6189 0001559  97.3525 262.7645 15.08839826 56460,6917.881,95.438,540.824,538.667,0.0
53556.0,STARLINK-4505,PAYLOAD,2023-08-27 09:50:53,15.08840909,0.0001531,53.2168,257.861,95.2282,264.8884,5.1019e-05,5.24e-06,0.0,0 STARLINK-4505,1 53556U 22101AF  23239.41034187  .00000524  00000-0  51019-4 0  9998,2 53556  53.2168 257.8610 0001531  95.2282 264.8884 15.08840909 56621,6917.878,95.437,540.802,538.683,0.0
53556.0,STARLINK-4505,PAYLOAD,2023-08-28 01:44:45,15.08833578,0.0001579,53.2174,254.8879,91.4363,268.681,1.599e-05,-3.4e-07,0.0,0 STARLINK-4505,1 53556U 22101AF  23240.07274917 -.00000034  00000-0  15990-4 0  9994,2 53556  53.2174 254.8879 0001579  91.4363 268.6810 15.08833578 56728,6917.9,95.438,540.857,538.673,0.0
53556.0,STARLINK-4505,PAYLOAD,2023-08-28 17:38:36,15.08838008,0.0001549,53.2178,251.9144,94.7842,265.3327,4.5435e-05,4.35e-06,0.0,0 STARLINK-4505,1 53556U 22101AF  23240.73514705  .00000435  00000-0  45435-4 0  9990,2 53556  53.2178 251.9144 0001549  94.7842 265.3327 15.08838008 56821,6917.886,95.438,540.823,538.68,0.0
53556.0,STARLINK-4505,PAYLOAD,2023-08-29 01:35:29,15.08871577,0.0001524,53.218,250.4274,84.5668,275.5498,0.00031127,4.674e-05,0.0,0 STARLINK-4505,1 53556U 22101AF  23241.06631530  .00004674  00000-0  31127-3 0  9994,2 53556  53.2180 250.4274 0001524  84.5668 275.5498 15.08871577 56873,6917.784,95.436,540.703,538.595,0.0
53556.0,STARLINK-4505,PAYLOAD,2023-08-29 07:57:04,15.08833055,0.0001441,53.2176,249.2383,95.2037,264.912,-2.0149e-05,-6.09e-06,0.0,0 STARLINK-4505,1 53556U 22101AF  23241.33130764 -.00000609  00000-0 -20149-4 0  9996,2 53556  53.2176 249.2383 0001441  95.2037 264.9120 15.08833055 56910,6917.902,95.438,540.763,538.77,0.0
53556.0,STARLINK-4505,PAYLOAD,2023-08-30 17:20:10,15.08837049,0.000138,53.2168,242.9936,90.8224,269.2926,1.9297e-05,1.9e-07,0.0,0 STARLINK-4505,1 53556U 22101AF  23242.72234951  .00000019  00000-0  19297-4 0  9998,2 53556  53.2168 242.9936 0001380  90.8224 269.2926 15.08837049 57129,6917.889,95.438,540.709,538.8,0.0
53556.0,STARLINK-4505,PAYLOAD,2023-08-30 23:41:43,15.08856429,0.0001598,53.2166,241.804,83.4623,276.6551,-0.0002194,-3.78e-05,0.0,0 STARLINK-4505,1 53556U 22101AF  23242.98730473 -.00003780  00000-0 -21940-3 0  9993,2 53556  53.2166 241.8040 0001598  83.4623 276.6551 15.08856429 57166,6917.83,95.437,540.801,538.59,0.0
53556.0,STARLINK-4505,PAYLOAD,2023-08-31 09:14:01,15.0885758,0.0001206,53.2164,240.0196,72.7545,287.358,-0.00018722,-3.268e-05,0.0,0 STARLINK-4505,1 53556U 22101AF  23243.38473939 -.00003268  00000-0 -18722-3 0  9994,2 53556  53.2164 240.0196 0001206  72.7545 287.3580 15.08857580 57224,6917.827,95.436,540.526,538.857,0.0
53556.0,STARLINK-4505,PAYLOAD,2023-08-31 23:32:30,15.0883198,0.0001412,53.2165,237.3434,88.9904,271.125,7.7708e-05,9.49e-06,0.0,0 STARLINK-4505,1 53556U 22101AF  23243.98091238  .00000949  00000-0  77708-4 0  9999,2 53556  53.2165 237.3434 0001412  88.9904 271.1250 15.08831980 57317,6917.905,95.438,540.747,538.793,0.0
53556.0,STARLINK-4505,PAYLOAD,2023-09-01 09:04:49,15.0883659,0.0001456,53.2164,235.5587,88.9332,271.1827,8.9602e-05,1.138e-05,0.0,0 STARLINK-4505,1 53556U 22101AF  23244.37835160  .00001138  00000-0  89602-4 0  9990,2 53556  53.2164 235.5587 0001456  88.9332 271.1827 15.08836590 57376,6917.891,95.438,540.763,538.749,0.0
53556.0,STARLINK-4505,PAYLOAD,2023-09-01 17:01:45,15.08840156,0.0001486,53.2166,234.0725,88.0293,272.087,0.00010495,1.383e-05,0.0,0 STARLINK-4505,1 53556U 22101AF  23244.70954977  .00001383  00000-0  10495-3 0  9990,2 53556  53.2166 234.0725 0001486  88.0293 272.0870 15.08840156 57423,6917.88,95.438,540.773,538.717,0.0
53556.0,STARLINK-4505,PAYLOAD,2023-09-02 05:44:49,15.08849648,0.0001457,53.2154,231.6924,89.662,270.4539,0.0001277,1.745e-05,0.0,0 STARLINK-4505,1 53556U 22101AF  23245.23946212  .00001745  00000-0  12770-3 0  9992,2 53556  53.2154 231.6924 0001457  89.6620 270.4539 15.08849648 57501,6917.851,95.437,540.724,538.708,0.0
53556.0,STARLINK-4505,PAYLOAD,2023-09-02 23:14:04,15.08839236,0.0001402,53.2153,228.4196,98.2306,261.8845,8.0054e-05,9.86e-06,0.0,0 STARLINK-4505,1 53556U 22101AF  23245.96810877  .00000986  00000-0  80054-4 0  9996,2 53556  53.2153 228.4196 0001402  98.2306 261.8845 15.08839236 57610,6917.883,95.438,540.718,538.778,0.0
53556.0,STARLINK-4505,PAYLOAD,2023-09-03 10:21:46,15.08847495,0.0001315,53.217,226.3392,94.7648,265.3495,0.00013953,1.934e-05,0.0,0 STARLINK-4505,1 53556U 22101AF  23246.43178246  .00001934  00000-0  13953-3 0  9993,2 53556  53.2170 226.3392 0001315  94.7648 265.3495 15.08847495 57680,6917.857,95.437,540.632,538.813,0.0
